BEIDOU-3 IGSO-3         
1 44709U 19073A   26136.81046384 -.00000217  00000+0  00000+0 0  9995
2 44709  54.8566 281.2355 0042953 189.4588 170.3676  1.00246251 24144
TIBA-1                  
1 44800U 19080A   26164.62638485  .00000167  00000+0  00000+0 0  9997
2 44800   0.0517   1.1453 0001793  93.1859  68.6024  1.00268885 24022
INMARSAT GX5            
1 44801U 19080B   26164.62153150  .00000086  00000+0  00000+0 0  9999
2 44801   0.0448  27.1599 0002175  53.0079  56.5496  1.00271628  6757
JCSAT-18 (KACIFIC 1)    
1 44868U 19091A   26164.55600263 -.00000190  00000+0  00000+0 0  9995
2 44868   0.0123 262.8828 0000460 336.1445  13.0027  1.00267364 23973
ELEKTRO-L 3             
1 44903U 19095A   26164.49177450 -.00000085  00000+0  00000+0 0  9992
2 44903   0.2461  81.5453 0001057 354.2937  78.9614  1.00271616 23674
SHIJIAN-20 (SJ-20)      
1 44910U 19097A   26164.27175181  .00000144  00000+0  00000+0 0  9992
2 44910   4.9086  75.1093 0013854  54.7929 274.3731  1.00276681 23653
TJS-5                   
1 44978U 20002A   26164.49808424 -.00000330  00000+0  00000+0 0  9999
2 44978   0.0211 293.6551 0007418 113.2546 141.7271  1.00270658 23671
GSAT-30                 
1 45026U 20005A   26164.63578444 -.00000154  00000+0  00000+0 0  9993
2 45026   0.0647  99.6804 0003355 344.3145 129.8229  1.00271501 23478
EUTELSAT KONNECT        
1 45027U 20005B   26163.69395206  .00000065  00000+0  00000+0 0  9992
2 45027   0.0723  99.8531 0001648 128.9449 289.2912  1.00275963 24296
JCSAT-17                
1 45245U 20013A   26164.52405953 -.00000308  00000+0  00000+0 0  9998
2 45245   5.3924 356.8332 0002362  83.6374 146.0521  1.00271617 23198
GEO-KOMPSAT-2B          
1 45246U 20013B   26164.57346023 -.00000332  00000+0  00000+0 0  9993
2 45246   0.0165 256.4174 0000740  14.8397 325.3395  1.00272479 23240
BEIDOU-3 G2             
1 45344U 20017A   26164.63517778 -.00000132  00000+0  00000+0 0  9998
2 45344   2.8559  47.2829 0002148  32.1520 131.2494  1.00272457 23222
AEHF-6 (USA 298)        
1 45465U 20022B   26164.51240404 -.00000285  00000+0  00000+0 0  9993
2 45465   2.5566 301.0989 0043189  17.0589 265.9041  1.00272758 22974
BEIDOU-3 G3             
1 45807U 20040A   26164.66094681 -.00000344  00000+0  00000+0 0  9999
2 45807   2.4372  67.4418 0002484 336.1014 206.9220  1.00268500 22030
APSTAR-6D               
1 45863U 20045A   26163.86163785 -.00000304  00000+0  00000+0 0  9995
2 45863   0.0494 112.7015 0001955 330.7120 261.9926  1.00270996 21819
KOREASAT 116            
1 45920U 20048A   26164.64230932 -.00000351  00000+0  00000+0 0  9990
2 45920   0.0157 352.5195 0000721  91.7381 165.1461  1.00269754 21601
EXPRESS 103             
1 45985U 20053A   26164.35325537 -.00000268  00000+0  00000+0 0  9998
2 45985   0.0133 298.6052 0000214  97.7232  89.0253  1.00270753 21611
EXPRESS 80              
1 45986U 20053B   26164.05180263 -.00000123  00000+0  00000+0 0  9991
2 45986   0.0185 306.8631 0001867 208.3990 204.7549  1.00275238 21594
BSAT-4B                 
1 46112U 20056A   26164.49851758  .00000000  00000+0  00000+0 0  9991
2 46112   0.0192  98.5475 0003746  17.2668  75.2961  1.00268721 21354
MEV-2                   
1 46113U 20056B   26164.61910483  .00000000  00000+0  00000+0 0  9997
2 46113   0.0136 336.6129 0000154 229.4472 277.7349  1.00269844 80446
GALAXY 30 (G-30)        
1 46114U 20056C   26164.59454126  .00000048  00000+0  00000+0 0  9994
2 46114   0.0179   0.2114 0002059  88.0552 262.6765  1.00270191 21252
GAOFEN-13 01            
1 46610U 20071A   26164.64282932 -.00000352  00000+0  00000+0 0  9991
2 46610   0.5120  84.8879 0041375 123.6334  43.0680  1.00272393 20889
TIANTONG-1 2            
1 46916U 20082A   26164.64404266 -.00000344  00000+0  00000+0 0  9999
2 46916   0.7951 326.9726 0000978  98.6100 193.1737  1.00271144 20613
LUCAS (JDRS-1)          
1 47202U 20089A   26164.65720528 -.00000225  00000+0  00000+0 0  9996
2 47202   0.0131 302.9665 0002065 129.5467 156.8559  1.00271277 20389
SXM-7                   
1 47240U 20096A   26163.88959397 -.00000191  00000+0  00000+0 0  9990
2 47240   0.0410 121.9228 0003792   4.0889  10.3053  1.00270240  7408
CMS-01                  
1 47256U 20099A   26164.63578444 -.00000154  00000+0  00000+0 0  9993
2 47256   0.0892  96.2967 0003768 180.3685 297.1598  1.00271130 20164
TURKSAT 5A              
1 47306U 21001A   26163.79975087  .00000168  00000+0  00000+0 0  9997
2 47306   0.0162  45.9216 0000077 215.2485 318.8046  1.00271122 19926
TIANTONG-1 3            
1 47321U 21003A   26164.63552444 -.00000144  00000+0  00000+0 0  9993
2 47321   1.7591 339.0573 0003140 110.3515 122.8758  1.00271085 19924
TJS-6                   
1 47613U 21010A   26164.58336120  .00000054  00000+0  00000+0 0  9999
2 47613   0.2610 264.3608 0002999 223.5939 162.4704  1.00268582 19773
SBIRS GEO-5 (USA 315)   
1 48618U 21042A   26164.49524118 -.00000257  00000+0  00000+0 0  9992
2 48618   5.1086 329.0970 0001314 121.1242  83.6886  1.00270704 18730
FENGYUN 4B              
1 48808U 21047A   26164.64005598 -.00000319  00000+0  00000+0 0  9990
2 48808   0.1440  77.0711 0005878 275.6264 244.2240  1.00278278 18532
SXM-8                   
1 48838U 21049A   26163.88959397 -.00000191  00000+0  00000+0 0  9993
2 48838   0.0201  18.0567 0004910  13.7893 104.4761  1.00269556 18543
