OBJECT_NAME,OBJECT_ID,EPOCH,MEAN_MOTION,ECCENTRICITY,INCLINATION,RA_OF_ASC_NODE,ARG_OF_PERICENTER,MEAN_ANOMALY,EPHEMERIS_TYPE,CLASSIFICATION_TYPE,NORAD_CAT_ID,ELEMENT_SET_NO,REV_AT_EPOCH,BSTAR,MEAN_MOTION_DOT,MEAN_MOTION_DDOT
BEIDOU-3 IGSO-3,2019-073A,2026-05-16T19:27:04.075776,1.00246251,.0042953,54.8566,281.2355,189.4588,170.3676,0,U,44709,999,2414,0,-.217E-5,0
TIBA-1,2019-080A,2026-06-13T15:01:59.651040,1.00268885,.00017936,0.0517,1.1453,93.1859,68.6024,0,U,44800,999,2402,0,.167E-5,0
INMARSAT GX5,2019-080B,2026-06-13T14:55:00.321600,1.00271628,.00021753,0.0448,27.1599,53.0079,56.5496,0,U,44801,999,675,0,.86E-6,0
JCSAT-18 (KACIFIC 1),2019-091A,2026-06-13T13:20:38.627232,1.00267364,.00004601,0.0123,262.8828,336.1445,13.0027,0,U,44868,999,2397,0,-.19E-5,0
ELEKTRO-L 3,2019-095A,2026-06-13T11:48:09.316800,1.00271616,.00010577,0.2461,81.5453,354.2937,78.9614,0,U,44903,999,2367,0,-.85E-6,0
SHIJIAN-20 (SJ-20),2019-097A,2026-06-13T06:31:19.356384,1.00276681,.0013854,4.9086,75.1093,54.7929,274.3731,0,U,44910,999,2365,0,.144E-5,0
TJS-5,2020-002A,2026-06-13T11:57:14.478336,1.00270658,.0007418,0.0211,293.6551,113.2546,141.7271,0,U,44978,999,2367,0,-.33E-5,0
GSAT-30,2020-005A,2026-06-13T15:15:31.775616,1.00271501,.00033555,0.0647,99.6804,344.3145,129.8229,0,U,45026,999,2347,0,-.154E-5,0
EUTELSAT KONNECT,2020-005B,2026-06-12T16:39:17.457984,1.00275963,.00016489,0.0723,99.8531,128.9449,289.2912,0,U,45027,999,2429,0,.65E-6,0
JCSAT-17,2020-013A,2026-06-13T12:34:38.743392,1.00271617,.00023623,5.3924,356.8332,83.6374,146.0521,0,U,45245,999,2319,0,-.308E-5,0
GEO-KOMPSAT-2B,2020-013B,2026-06-13T13:45:46.963872,1.00272479,.000074,0.0165,256.4174,14.8397,325.3395,0,U,45246,999,2324,0,-.332E-5,0
BEIDOU-3 G2,2020-017A,2026-06-13T15:14:39.360192,1.00272457,.00021484,2.8559,47.2829,32.1520,131.2494,0,U,45344,999,2322,0,-.132E-5,0
AEHF-6 (USA 298),2020-022B,2026-06-13T12:17:51.709056,1.00272758,.00431896,2.5566,301.0989,17.0589,265.9041,0,U,45465,999,2297,0,-.285E-5,0
BEIDOU-3 G3,2020-040A,2026-06-13T15:51:45.804384,1.00268500,.00024845,2.4372,67.4418,336.1014,206.9220,0,U,45807,999,2203,0,-.344E-5,0
APSTAR-6D,2020-045A,2026-06-12T20:40:45.510240,1.00270996,.00019552,0.0494,112.7015,330.7120,261.9926,0,U,45863,999,2181,0,-.304E-5,0
KOREASAT 116,2020-048A,2026-06-13T15:24:55.525248,1.00269754,.00007216,0.0157,352.5195,91.7381,165.1461,0,U,45920,999,2160,0,-.351E-5,0
EXPRESS 103,2020-053A,2026-06-13T08:28:41.263968,1.00270753,.00002143,0.0133,298.6052,97.7232,89.0253,0,U,45985,999,2161,0,-.268E-5,0
EXPRESS 80,2020-053B,2026-06-13T01:14:35.747232,1.00275238,.00018672,0.0185,306.8631,208.3990,204.7549,0,U,45986,999,2159,0,-.123E-5,0
BSAT-4B,2020-056A,2026-06-13T11:57:51.918912,1.00268721,.00037461,0.0192,98.5475,17.2668,75.2961,0,U,46112,999,2135,0,0,0
MEV-2,2020-056B,2026-06-13T14:51:30.657312,1.00269844,.00001548,0.0136,336.6129,229.4472,277.7349,0,U,46113,999,8044,0,0,0
GALAXY 30 (G-30),2020-056C,2026-06-13T14:16:08.364864,1.00270191,.00020596,0.0179,0.2114,88.0552,262.6765,0,U,46114,999,2125,0,.48E-6,0
GAOFEN-13 01,2020-071A,2026-06-13T15:25:40.453248,1.00272393,.00413752,0.5120,84.8879,123.6334,43.0680,0,U,46610,999,2088,0,-.352E-5,0
TIANTONG-1 2,2020-082A,2026-06-13T15:27:25.285824,1.00271144,.00009789,0.7951,326.9726,98.6100,193.1737,0,U,46916,999,2061,0,-.344E-5,0
LUCAS (JDRS-1),2020-089A,2026-06-13T15:46:22.536192,1.00271277,.00020657,0.0131,302.9665,129.5467,156.8559,0,U,47202,999,2038,0,-.225E-5,0
SXM-7,2020-096A,2026-06-12T21:21:00.919008,1.00270240,.00037925,0.0410,121.9228,4.0889,10.3053,0,U,47240,999,740,0,-.191E-5,0
CMS-01,2020-099A,2026-06-13T15:15:31.775616,1.00271130,.00037686,0.0892,96.2967,180.3685,297.1598,0,U,47256,999,2016,0,-.154E-5,0
TURKSAT 5A,2021-001A,2026-06-12T19:11:38.475168,1.00271122,.00000774,0.0162,45.9216,215.2485,318.8046,0,U,47306,999,1992,0,.168E-5,0
TIANTONG-1 3,2021-003A,2026-06-13T15:15:09.311616,1.00271085,.00031405,1.7591,339.0573,110.3515,122.8758,0,U,47321,999,1992,0,-.144E-5,0
TJS-6,2021-010A,2026-06-13T14:00:02.407680,1.00268582,.00029993,0.2610,264.3608,223.5939,162.4704,0,U,47613,999,1977,0,.54E-6,0
SBIRS GEO-5 (USA 315),2021-042A,2026-06-13T11:53:08.837952,1.00270704,.00013144,5.1086,329.0970,121.1242,83.6886,0,U,48618,999,1873,0,-.257E-5,0
FENGYUN 4B,2021-047A,2026-06-13T15:21:40.836672,1.00278278,.00058785,0.1440,77.0711,275.6264,244.2240,0,U,48808,999,1853,0,-.319E-5,0
SXM-8,2021-049A,2026-06-12T21:21:00.919008,1.00269556,.00049109,0.0201,18.0567,13.7893,104.4761,0,U,48838,999,1854,0,-.191E-5,0
